NORAD_CAT_ID,OBJECT_NAME,OBJECT_TYPE,EPOCH,MEAN_MOTION,ECCENTRICITY,INCLINATION,RA_OF_ASC_NODE,ARG_OF_PERICENTER,MEAN_ANOMALY,BSTAR,MEAN_MOTION_DOT,MEAN_MOTION_DDOT,TLE_LINE0,TLE_LINE1,TLE_LINE2,SEMIMAJOR_AXIS,PERIOD,APOGEE,PERIGEE,DECAYED
52997.0,STARLINK-4301,PAYLOAD,2023-10-14 18:22:16,15.22834858,0.0004192,53.2375,53.1019,171.3675,188.7396,0.00065202,0.00015154,0.0,0 STARLINK-4301,1 52997U 22076M   23287.76546556  .00015154  00000-0  65202-3 0  9999,2 52997  53.2375  53.1019 0004192 171.3675 188.7396 15.22834858 70717,6875.432,94.56,500.179,494.414,0.0
52997.0,STARLINK-4301,PAYLOAD,2023-10-15 13:16:21,15.22857785,0.0004084,53.238,49.4912,173.1986,186.9069,0.00059735,0.00013862,0.0,0 STARLINK-4301,1 52997U 22076M   23288.55302883  .00013862  00000-0  59735-3 0  9998,2 52997  53.2380  49.4912 0004084 173.1986 186.9069 15.22857785 71305,6875.363,94.559,500.036,494.42,0.0
52997.0,STARLINK-4301,PAYLOAD,2023-10-15 14:50:52,15.22859337,0.0004075,53.2382,49.1903,173.5482,186.557,0.00059115,0.00013715,0.0,0 STARLINK-4301,1 52997U 22076M   23288.61865863  .00013715  00000-0  59115-3 0  9996,2 52997  53.2382  49.1903 0004075 173.5482 186.5570 15.22859337 70845,6875.358,94.559,500.025,494.421,0.0
52997.0,STARLINK-4301,PAYLOAD,2023-10-16 14:28:27,15.2288456,0.0003922,53.2391,44.6772,176.3473,183.7555,0.00054796,0.00012697,0.0,0 STARLINK-4301,1 52997U 22076M   23289.60309677  .00012697  00000-0  54796-3 0  9990,2 52997  53.2391  44.6772 0003922 176.3473 183.7555 15.22884560 70994,6875.282,94.557,499.844,494.451,0.0
52997.0,STARLINK-4301,PAYLOAD,2023-10-16 17:37:28,15.22887603,0.0003904,53.2391,44.0755,176.7339,183.3686,0.00054322,0.00012585,0.0,0 STARLINK-4301,1 52997U 22076M   23289.73435413  .00012585  00000-0  54322-3 0  9993,2 52997  53.2391  44.0755 0003904 176.7339 183.3686 15.22887603 71481,6875.273,94.557,499.822,494.454,0.0
52997.0,STARLINK-4301,PAYLOAD,2023-10-17 14:06:01,15.22911223,0.00038,53.2398,40.1635,178.982,181.1187,0.00057463,0.00013343,0.0,0 STARLINK-4301,1 52997U 22076M   23290.58751818  .00013343  00000-0  57463-3 0  9990,2 52997  53.2398  40.1635 0003800 178.9820 181.1187 15.22911223 71147,6875.202,94.556,499.679,494.454,0.0
52997.0,STARLINK-4301,PAYLOAD,2023-10-17 17:15:02,15.22912929,0.0003782,53.2398,39.5622,179.6325,180.4677,0.00053045,0.0001229,0.0,0 STARLINK-4301,1 52997U 22076M   23290.71877352  .00012290  00000-0  53045-3 0  9999,2 52997  53.2398  39.5622 0003782 179.6325 180.4677 15.22912929 71164,6875.197,94.556,499.662,494.461,0.0
52997.0,STARLINK-4301,PAYLOAD,2023-10-18 13:43:34,15.22934379,0.0003671,53.2407,35.651,181.5259,178.5729,0.00053666,0.00012446,0.0,0 STARLINK-4301,1 52997U 22076M   23291.57192434  .00012446  00000-0  53666-3 0  9997,2 52997  53.2407  35.6510 0003671 181.5259 178.5729 15.22934379 71768,6875.132,94.554,499.521,494.473,0.0
52997.0,STARLINK-4301,PAYLOAD,2023-10-19 11:46:35,15.22961041,0.0003523,53.2408,31.4383,184.5138,175.5829,0.00062862,0.00014652,0.0,0 STARLINK-4301,1 52997U 22076M   23292.49068803  .00014652  00000-0  62862-3 0  9990,2 52997  53.2408  31.4383 0003523 184.5138 175.5829 15.22961041 71434,6875.052,94.553,499.339,494.495,0.0
52997.0,STARLINK-4301,PAYLOAD,2023-10-20 11:24:05,15.22988612,0.0003375,53.2414,26.925,187.0556,173.0396,0.00056573,0.00013161,0.0,0 STARLINK-4301,1 52997U 22076M   23293.47505937  .00013161  00000-0  56573-3 0  9999,2 52997  53.2414  26.9250 0003375 187.0556 173.0396 15.22988612 72054,6874.969,94.551,499.154,494.514,0.0
52997.0,STARLINK-4301,PAYLOAD,2023-10-21 12:36:03,15.2301604,0.0003199,53.2421,22.1106,190.4015,169.6918,0.00052558,0.00012212,0.0,0 STARLINK-4301,1 52997U 22076M   23294.52503669  .00012212  00000-0  52558-3 0  9991,2 52997  53.2421  22.1106 0003199 190.4015 169.6918 15.23016040 72219,6874.886,94.549,498.951,494.552,0.0
52997.0,STARLINK-4301,PAYLOAD,2023-10-22 12:13:29,15.23039989,0.0003102,53.2425,17.5964,193.2134,166.8784,0.00042812,9.889e-05,0.0,0 STARLINK-4301,1 52997U 22076M   23295.50937272  .00009889  00000-0  42812-3 0  9999,2 52997  53.2425  17.5964 0003102 193.2134 166.8784 15.23039989 71890,6874.814,94.548,498.812,494.547,0.0
52997.0,STARLINK-4301,PAYLOAD,2023-10-23 11:50:55,15.23061192,0.000297,53.2432,13.0824,196.1892,163.9012,0.00037339,8.586e-05,0.0,0 STARLINK-4301,1 52997U 22076M   23296.49369407  .00008586  00000-0  37339-3 0  9998,2 52997  53.2432  13.0824 0002970 196.1892 163.9012 15.23061192 72512,6874.75,94.546,498.657,494.574,0.0
52997.0,STARLINK-4301,PAYLOAD,2023-10-24 11:28:19,15.23080945,0.0002837,53.2437,8.5681,199.8711,160.2177,0.00039937,9.213e-05,0.0,0 STARLINK-4301,1 52997U 22076M   23297.47800324  .00009213  00000-0  39937-3 0  9999,2 52997  53.2437   8.5681 0002837 199.8711 160.2177 15.23080945 72192,6874.691,94.545,498.506,494.606,0.0
52997.0,STARLINK-4301,PAYLOAD,2023-10-25 11:05:42,15.23097665,0.0002679,53.2442,4.0549,203.7149,156.3727,0.00036082,8.295e-05,0.0,0 STARLINK-4301,1 52997U 22076M   23298.46230114  .00008295  00000-0  36082-3 0  9990,2 52997  53.2442   4.0549 0002679 203.7149 156.3727 15.23097665 72819,6874.641,94.544,498.347,494.664,0.0
52997.0,STARLINK-4301,PAYLOAD,2023-10-26 10:43:05,15.23117912,0.0002538,53.2443,359.5411,208.5872,151.4988,0.00041377,9.569e-05,0.0,0 STARLINK-4301,1 52997U 22076M   23299.44658687  .00009569  00000-0  41377-3 0  9996,2 52997  53.2443 359.5411 0002538 208.5872 151.4988 15.23117912 72493,6874.58,94.543,498.19,494.7,0.0
52997.0,STARLINK-4301,PAYLOAD,2023-10-27 04:02:28,15.23136092,0.0002495,53.2445,356.2311,211.091,148.9942,0.00049891,0.00011616,0.0,0 STARLINK-4301,1 52997U 22076M   23300.16838769  .00011616  00000-0  49891-3 0  9994,2 52997  53.2445 356.2311 0002495 211.0910 148.9942 15.23136092 73078,6874.525,94.542,498.105,494.675,0.0
52997.0,STARLINK-4301,PAYLOAD,2023-10-27 13:29:24,15.23143848,0.0002357,53.2446,354.4256,214.2267,145.858,0.00047105,0.0001095,0.0,0 STARLINK-4301,1 52997U 22076M   23300.56209406  .00010950  00000-0  47105-3 0  9994,2 52997  53.2446 354.4256 0002357 214.2267 145.8580 15.23143848 72669,6874.502,94.541,497.987,494.746,0.0
52997.0,STARLINK-4301,PAYLOAD,2023-10-28 09:57:46,15.23161915,0.0002262,53.245,350.5134,216.8858,143.1986,0.00043126,0.00010001,0.0,0 STARLINK-4301,1 52997U 22076M   23301.41511627  .00010001  00000-0  43126-3 0  9996,2 52997  53.2450 350.5134 0002262 216.8858 143.1986 15.23161915 73268,6874.447,94.54,497.867,494.757,0.0
52997.0,STARLINK-4301,PAYLOAD,2023-10-29 09:35:04,15.2319017,0.0002175,53.2449,345.9977,217.9551,142.1295,0.00058422,0.00013685,0.0,0 STARLINK-4301,1 52997U 22076M   23302.39935794  .00013685  00000-0  58422-3 0  9995,2 52997  53.2449 345.9977 0002175 217.9551 142.1295 15.23190170 72945,6874.362,94.538,497.723,494.732,0.0
52997.0,STARLINK-4301,PAYLOAD,2023-10-30 09:12:21,15.23212745,0.0002063,53.2459,341.4851,228.2635,131.8188,0.00053141,0.00012424,0.0,0 STARLINK-4301,1 52997U 22076M   23303.38358405  .00012424  00000-0  53141-3 0  9996,2 52997  53.2459 341.4851 0002063 228.2635 131.8188 15.23212745 73098,6874.294,94.537,497.578,494.741,0.0
52997.0,STARLINK-4301,PAYLOAD,2023-10-31 02:31:41,15.23229985,0.0001938,53.2457,338.1742,230.0263,130.0566,0.00050651,0.00011832,0.0,0 STARLINK-4301,1 52997U 22076M   23304.10534014  .00011832  00000-0  50651-3 0  9994,2 52997  53.2457 338.1742 0001938 230.0263 130.0566 15.23229985 73675,6874.243,94.536,497.44,494.775,0.0
52997.0,STARLINK-4301,PAYLOAD,2023-10-31 08:49:37,15.23234217,0.0001905,53.2458,336.9703,232.2917,127.7909,0.00044195,0.0001028,0.0,0 STARLINK-4301,1 52997U 22076M   23304.36779499  .00010280  00000-0  44195-3 0  9992,2 52997  53.2458 336.9703 0001905 232.2917 127.7909 15.23234217 73244,6874.23,94.536,497.404,494.785,0.0
52997.0,STARLINK-4301,PAYLOAD,2023-10-31 19:51:00,15.23244015,0.0001848,53.2462,334.8638,235.5654,124.517,0.00044168,0.00010277,0.0,0 STARLINK-4301,1 52997U 22076M   23304.82708892  .00010277  00000-0  44168-3 0  9998,2 52997  53.2462 334.8638 0001848 235.5654 124.5170 15.23244015 73313,6874.2,94.535,497.336,494.795,0.0
52997.0,STARLINK-4301,PAYLOAD,2023-11-01 08:26:52,15.23256631,0.0001795,53.2464,332.4561,239.399,120.6832,0.00045951,0.0001071,0.0,0 STARLINK-4301,1 52997U 22076M   23305.35199204  .00010710  00000-0  45951-3 0  9991,2 52997  53.2464 332.4561 0001795 239.3990 120.6832 15.23256631 73869,6874.162,94.534,497.261,494.794,0.0
52997.0,STARLINK-4301,PAYLOAD,2023-11-01 19:28:14,15.23268397,0.0001732,53.2466,330.3493,241.5945,118.488,0.00048626,0.00011358,0.0,0 STARLINK-4301,1 52997U 22076M   23305.81127857  .00011358  00000-0  48626-3 0  9998,2 52997  53.2466 330.3493 0001732 241.5945 118.4880 15.23268397 73464,6874.127,94.534,497.183,494.801,0.0
52997.0,STARLINK-4301,PAYLOAD,2023-11-02 08:04:04,15.2331485,0.0001681,53.2464,327.9414,245.5349,114.5474,0.0011729,0.00027969,0.0,0 STARLINK-4301,1 52997U 22076M   23306.33616347  .00027969  00000-0  11729-2 0  9991,2 52997  53.2464 327.9414 0001681 245.5349 114.5474 15.23314850 74016,6873.987,94.531,497.008,494.697,0.0
52997.0,STARLINK-4301,PAYLOAD,2023-11-02 19:05:24,15.23360604,0.0001589,53.2468,325.8347,247.6307,112.4523,0.0014885,0.00035671,0.0,0 STARLINK-4301,1 52997U 22076M   23306.79542381  .00035671  00000-0  14885-2 0  9992,2 52997  53.2468 325.8347 0001589 247.6307 112.4523 15.23360604 74083,6873.85,94.528,496.807,494.622,0.0
52997.0,STARLINK-4301,PAYLOAD,2023-11-03 07:41:12,15.23390455,0.0001482,53.2474,323.4274,252.5786,107.5051,0.0010601,0.00025295,0.0,0 STARLINK-4301,1 52997U 22076M   23307.32028363  .00025295  00000-0  10601-2 0  9994,2 52997  53.2474 323.4274 0001482 252.5786 107.5051 15.23390455 73695,6873.76,94.526,496.644,494.606,0.0
52997.0,STARLINK-4301,PAYLOAD,2023-11-03 18:42:31,15.23395817,0.0001463,53.2477,321.3199,252.554,107.5299,0.00062567,0.00014773,0.0,0 STARLINK-4301,1 52997U 22076M   23307.77953261  .00014773  00000-0  62567-3 0  9995,2 52997  53.2477 321.3199 0001463 252.5540 107.5299 15.23395817 74230,6873.744,94.526,496.614,494.603,0.0
